{"type": "FeatureCollection", "features": [ {"type": "Feature", "properties": {"norad_id": 32289, "name": "YAOGAN-3", "group": "resource", "lat": 17.423679233876328, "lon": 15.093667891264658, "alt_km": 598.2676484086305, "timestamp": "2025-12-16T23:36:35.841469+00:00", "meta": {"OBJECT_NAME": "YAOGAN-3", "OBJECT_ID": "2007-055A", "EPOCH": "2025-12-16T09:01:28.286112", "MEAN_MOTION": 14.89881056, "ECCENTRICITY": 0.00013569, "INCLINATION": 97.837, "RA_OF_ASC_NODE": 16.9688, "ARG_OF_PERICENTER": 74.7895, "MEAN_ANOMALY": 285.3472, "EPHEMERIS_TYPE": 0, "CLASSIFICATION_TYPE": "U", "NORAD_CAT_ID": 32289, "ELEMENT_SET_NO": 999, "REV_AT_EPOCH": 97863, "BSTAR": 0.00031599409, "MEAN_MOTION_DOT": 2.983e-05, "MEAN_MOTION_DDOT": 0}, "tle": {"line1": "1 32289U 07055A   25350.37602183  .00002983  00000+0  31599-3 0  9997", "line2": "2 32289  97.8370  16.9688 0001356  74.7895 285.3472 14.89881056978637"}}, "geometry": {"type": "Point", "coordinates": [15.093667891264658, 17.423679233876328]}}, {"type": "Feature", "properties": {"norad_id": 32376, "name": "COSMO-SKYMED 2", "group": "resource", "lat": 0.7782025655716234, "lon": -7.648787725938664, "alt_km": 625.6092066608353, "timestamp": "2025-12-16T23:36:35.841480+00:00", "meta": {"OBJECT_NAME": "COSMO-SKYMED 2", "OBJECT_ID": "2007-059A", "EPOCH": "2025-12-16T08:13:20.075808", "MEAN_MOTION": 14.82147123, "ECCENTRICITY": 0.00013751, "INCLINATION": 97.8804, "RA_OF_ASC_NODE": 171.6122, "ARG_OF_PERICENTER": 83.1726, "MEAN_ANOMALY": 276.9644, "EPHEMERIS_TYPE": 0, "CLASSIFICATION_TYPE": "U", "NORAD_CAT_ID": 32376, "ELEMENT_SET_NO": 999, "REV_AT_EPOCH": 97491, "BSTAR": 7.7935771e-05, "MEAN_MOTION_DOT": 5.68e-06, "MEAN_MOTION_DDOT": 0}, "tle": {"line1": "1 32376U 07059A   25350.34259347  .00000568  00000+0  77936-4 0  9998", "line2": "2 32376  97.8804 171.6122 0001375  83.1726 276.9644 14.82147123974913"}}, "geometry": {"type": "Point", "coordinates": [-7.648787725938664, 0.7782025655716234]}}, {"type": "Feature", "properties": {"norad_id": 32382, "name": "RADARSAT-2", "group": "resource", "lat": 51.33909915297034, "lon": -15.36513873523279, "alt_km": 786.3229721419457, "timestamp": "2025-12-16T23:36:35.841491+00:00", "meta": {"OBJECT_NAME": "RADARSAT-2", "OBJECT_ID": "2007-061A", "EPOCH": "2025-12-16T06:34:26.128992", "MEAN_MOTION": 14.29983344, "ECCENTRICITY": 0.00011128, "INCLINATION": 98.58, "RA_OF_ASC_NODE": 354.813, "ARG_OF_PERICENTER": 85.3107, "MEAN_ANOMALY": 274.8203, "EPHEMERIS_TYPE": 0, "CLASSIFICATION_TYPE": "U", "NORAD_CAT_ID": 32382, "ELEMENT_SET_NO": 999, "REV_AT_EPOCH": 93981, "BSTAR": 7.8087662e-05, "MEAN_MOTION_DOT": 1.58e-06, "MEAN_MOTION_DDOT": 0}, "tle": {"line1": "1 32382U 07061A   25350.27391353  .00000158  00000+0  78088-4 0  9998", "line2": "2 32382  98.5800 354.8130 0001112  85.3107 274.8203 14.29983344939816"}}, "geometry": {"type": "Point", "coordinates": [-15.36513873523279, 51.33909915297034]}}, {"type": "Feature", "properties": {"norad_id": 32783, "name": "CARTOSAT-2A", "group": "resource", "lat": -82.19140765687646, "lon": 133.62402836760978, "alt_km": 638.7847539809063, "timestamp": "2025-12-16T23:36:35.841501+00:00", "meta": {"OBJECT_NAME": "CARTOSAT-2A", "OBJECT_ID": "2008-021A", "EPOCH": "2025-12-16T07:46:47.709984", "MEAN_MOTION": 14.78946089, "ECCENTRICITY": 0.00115989, "INCLINATION": 97.7932, "RA_OF_ASC_NODE": 40.0358, "ARG_OF_PERICENTER": 353.1492, "MEAN_ANOMALY": 6.9559, "EPHEMERIS_TYPE": 0, "CLASSIFICATION_TYPE": "U", "NORAD_CAT_ID": 32783, "ELEMENT_SET_NO": 999, "REV_AT_EPOCH": 95177, "BSTAR": 0.0001476716, "MEAN_MOTION_DOT": 1.04e-05, "MEAN_MOTION_DDOT": 0}, "tle": {"line1": "1 32783U 08021A   25350.32416331  .00001040  00000+0  14767-3 0  9994", "line2": "2 32783  97.7932  40.0358 0011598 353.1492   6.9559 14.78946089951772"}}, "geometry": {"type": "Point", "coordinates": [133.62402836760978, -82.19140765687646]}}, {"type": "Feature", "properties": {"norad_id": 33320, "name": "HUANJING 1A (HJ-1A)", "group": "resource", "lat": -23.00742643797598, "lon": 155.83187202358812, "alt_km": 638.005089349419, "timestamp": "2025-12-16T23:36:35.841512+00:00", "meta": {"OBJECT_NAME": "HUANJING 1A (HJ-1A)", "OBJECT_ID": "2008-041A", "EPOCH": "2025-12-16T08:07:39.021312", "MEAN_MOTION": 14.83409599, "ECCENTRICITY": 0.00199519, "INCLINATION": 97.6539, "RA_OF_ASC_NODE": 338.4872, "ARG_OF_PERICENTER": 23.1865, "MEAN_ANOMALY": 337.0245, "EPHEMERIS_TYPE": 0, "CLASSIFICATION_TYPE": "U", "NORAD_CAT_ID": 33320, "ELEMENT_SET_NO": 999, "REV_AT_EPOCH": 93129, "BSTAR": 0.00025224096, "MEAN_MOTION_DOT": 2.026e-05, "MEAN_MOTION_DDOT": 0}, "tle": {"line1": "1 33320U 08041A   25350.33864608  .00002026  00000+0  25224-3 0  9994", "line2": "2 33320  97.6539 338.4872 0019951  23.1865 337.0245 14.83409599931297"}}, "geometry": {"type": "Point", "coordinates": [155.83187202358812, -23.00742643797598]}}, {"type": "Feature", "properties": {"norad_id": 33321, "name": "HUANJING 1B (HJ-1B)", "group": "resource", "lat": 54.6075467660594, "lon": -28.09906726000606, "alt_km": 588.6761475320263, "timestamp": "2025-12-16T23:36:35.841523+00:00", "meta": {"OBJECT_NAME": "HUANJING 1B (HJ-1B)", "OBJECT_ID": "2008-041B", "EPOCH": "2025-12-16T05:32:53.280672", "MEAN_MOTION": 14.82833754, "ECCENTRICITY": 0.0038205, "INCLINATION": 97.6401, "RA_OF_ASC_NODE": 342.0723, "ARG_OF_PERICENTER": 64.6622, "MEAN_ANOMALY": 295.8541, "EPHEMERIS_TYPE": 0, "CLASSIFICATION_TYPE": "U", "NORAD_CAT_ID": 33321, "ELEMENT_SET_NO": 999, "REV_AT_EPOCH": 93129, "BSTAR": 0.00018998255, "MEAN_MOTION_DOT": 1.506e-05, "MEAN_MOTION_DDOT": 0}, "tle": {"line1": "1 33321U 08041B   25350.23117223  .00001506  00000+0  18998-3 0  9990", "line2": "2 33321  97.6401 342.0723 0038205  64.6622 295.8541 14.82833754931299"}}, "geometry": {"type": "Point", "coordinates": [-28.09906726000606, 54.6075467660594]}}, {"type": "Feature", "properties": {"norad_id": 33331, "name": "GEOEYE 1", "group": "resource", "lat": 52.97824619831479, "lon": -106.86903099146804, "alt_km": 674.5769726794497, "timestamp": "2025-12-16T23:36:35.841534+00:00", "meta": {"OBJECT_NAME": "GEOEYE 1", "OBJECT_ID": "2008-042A", "EPOCH": "2025-12-16T08:16:47.363232", "MEAN_MOTION": 14.64705346, "ECCENTRICITY": 0.00027556, "INCLINATION": 98.1251, "RA_OF_ASC_NODE": 61.5805, "ARG_OF_PERICENTER": 269.7533, "MEAN_ANOMALY": 90.3354, "EPHEMERIS_TYPE": 0, "CLASSIFICATION_TYPE": "U", "NORAD_CAT_ID": 33331, "ELEMENT_SET_NO": 999, "REV_AT_EPOCH": 92338, "BSTAR": 9.8332196e-05, "MEAN_MOTION_DOT": 4.76e-06, "MEAN_MOTION_DDOT": 0}, "tle": {"line1": "1 33331U 08042A   25350.34499263  .00000476  00000+0  98332-4 0  9997", "line2": "2 33331  98.1251  61.5805 0002755 269.7533  90.3354 14.64705346923389"}}, "geometry": {"type": "Point", "coordinates": [-106.86903099146804, 52.97824619831479]}}, {"type": "Feature", "properties": {"norad_id": 33396, "name": "THEOS", "group": "resource", "lat": 21.277917168772046, "lon": 45.574806088290615, "alt_km": 824.577009790547, "timestamp": "2025-12-16T23:36:35.841545+00:00", "meta": {"OBJECT_NAME": "THEOS", "OBJECT_ID": "2008-049A", "EPOCH": "2025-12-16T08:17:24.186048", "MEAN_MOTION": 14.20097673, "ECCENTRICITY": 0.00011578, "INCLINATION": 98.5869, "RA_OF_ASC_NODE": 48.3288, "ARG_OF_PERICENTER": 96.2638, "MEAN_ANOMALY": 263.867, "EPHEMERIS_TYPE": 0, "CLASSIFICATION_TYPE": "U", "NORAD_CAT_ID": 33396, "ELEMENT_SET_NO": 999, "REV_AT_EPOCH": 89201, "BSTAR": 5.0971675e-05, "MEAN_MOTION_DOT": 6.6e-07, "MEAN_MOTION_DDOT": 0}, "tle": {"line1": "1 33396U 08049A   25350.34541882  .00000066  00000+0  50972-4 0  9993", "line2": "2 33396  98.5869  48.3288 0001157  96.2638 263.8670 14.20097673892013"}}, "geometry": {"type": "Point", "coordinates": [45.574806088290615, 21.277917168772046]}}, {"type": "Feature", "properties": {"norad_id": 33412, "name": "COSMO-SKYMED 3", "group": "resource", "lat": -29.867806236395445, "lon": -154.01053756114294, "alt_km": 567.4892517017415, "timestamp": "2025-12-16T23:36:35.841556+00:00", "meta": {"OBJECT_NAME": "COSMO-SKYMED 3", "OBJECT_ID": "2008-054A", "EPOCH": "2025-12-16T07:47:29.501664", "MEAN_MOTION": 15.05392338, "ECCENTRICITY": 0.00163537, "INCLINATION": 97.8476, "RA_OF_ASC_NODE": 200.7764, "ARG_OF_PERICENTER": 160.7043, "MEAN_ANOMALY": 199.4806, "EPHEMERIS_TYPE": 0, "CLASSIFICATION_TYPE": "U", "NORAD_CAT_ID": 33412, "ELEMENT_SET_NO": 999, "REV_AT_EPOCH": 92941, "BSTAR": 0.00027113182, "MEAN_MOTION_DOT": 3.834e-05, "MEAN_MOTION_DDOT": 0}, "tle": {"line1": "1 33412U 08054A   25350.32464701  .00003834  00000+0  27113-3 0  9996", "line2": "2 33412  97.8476 200.7764 0016353 160.7043 199.4806 15.05392338929412"}}, "geometry": {"type": "Point", "coordinates": [-154.01053756114294, -29.867806236395445]}}, {"type": "Feature", "properties": {"norad_id": 33446, "name": "YAOGAN-4", "group": "resource", "lat": -34.626513007971475, "lon": -73.4431324019474, "alt_km": 618.1224039453873, "timestamp": "2025-12-16T23:36:35.841567+00:00", "meta": {"OBJECT_NAME": "YAOGAN-4", "OBJECT_ID": "2008-061A", "EPOCH": "2025-12-16T07:34:14.077344", "MEAN_MOTION": 14.82693387, "ECCENTRICITY": 0.00133535, "INCLINATION": 97.9187, "RA_OF_ASC_NODE": 280.3797, "ARG_OF_PERICENTER": 310.8993, "MEAN_ANOMALY": 49.1063, "EPHEMERIS_TYPE": 0, "CLASSIFICATION_TYPE": "U", "NORAD_CAT_ID": 33446, "ELEMENT_SET_NO": 999, "REV_AT_EPOCH": 91856, "BSTAR": 0.00017752381, "MEAN_MOTION_DOT": 1.38e-05, "MEAN_MOTION_DDOT": 0}, "tle": {"line1": "1 33446U 08061A   25350.31544071  .00001380  00000+0  17752-3 0  9991", "line2": "2 33446  97.9187 280.3797 0013353 310.8993  49.1063 14.82693387918560"}}, "geometry": {"type": "Point", "coordinates": [-73.4431324019474, -34.626513007971475]}}]}